{
  "type": "FeatureCollection",
  "features": [
    {
      "type": "Feature",
      "properties": {
        "id": "trail-osm-506713307",
        "kind": "trail",
        "label_ja": "ダウンヒルコース",
        "label_en": "Downhill",
        "osm_tags": {
          "name": "ダウンヒルコース",
          "name:en": "Downhill",
          "piste:difficulty": "advanced",
          "piste:type": "downhill"
        },
        "source": {
          "type": "osm",
          "id": "way/506713307",
          "retrieved_at": "2026-07-18"
        }
      },
      "geometry": {
        "type": "LineString",
        "coordinates": [
          [
            141.0590444,
            43.0691004
          ],
          [
            141.0598635,
            43.0691522
          ],
          [
            141.0607017,
            43.0691718
          ],
          [
            141.0615251,
            43.0690867
          ],
          [
            141.0620208,
            43.0691099
          ],
          [
            141.0632227,
            43.0690889
          ],
          [
            141.0636074,
            43.0690349
          ],
          [
            141.0637879,
            43.0689701
          ],
          [
            141.0641903,
            43.0688878
          ],
          [
            141.0643136,
            43.0688486
          ],
          [
            141.0646731,
            43.0686722
          ],
          [
            141.0654938,
            43.0682176
          ],
          [
            141.0656226,
            43.0681549
          ],
          [
            141.0660034,
            43.0680413
          ],
          [
            141.0661483,
            43.0680178
          ],
          [
            141.0666418,
            43.0680452
          ],
          [
            141.0673338,
            43.0681549
          ],
          [
            141.0674733,
            43.0681706
          ],
          [
            141.068176,
            43.0681863
          ],
          [
            141.0685837,
            43.0682294
          ],
          [
            141.0687286,
            43.0682333
          ],
          [
            141.0692865,
            43.0682999
          ],
          [
            141.0696995,
            43.0683078
          ],
          [
            141.069839,
            43.0683235
          ],
          [
            141.0701019,
            43.0683235
          ],
          [
            141.0708743,
            43.0682843
          ],
          [
            141.0711265,
            43.068202
          ],
          [
            141.0713893,
            43.0681706
          ],
          [
            141.0716736,
            43.0681745
          ],
          [
            141.0718024,
            43.0681902
          ],
          [
            141.0723978,
            43.0681824
          ],
          [
            141.0726875,
            43.0681941
          ],
          [
            141.0729879,
            43.0682176
          ],
          [
            141.073283,
            43.0682098
          ],
          [
            141.0737121,
            43.0682137
          ],
          [
            141.0742539,
            43.0682803
          ],
          [
            141.0745704,
            43.0682882
          ],
          [
            141.0748547,
            43.0683117
          ],
          [
            141.0751283,
            43.0683195
          ],
          [
            141.0758793,
            43.0684489
          ],
          [
            141.077022,
            43.0686291
          ],
          [
            141.0779987,
            43.0689214
          ],
          [
            141.0792848,
            43.0694016
          ],
          [
            141.0801065,
            43.0697225
          ],
          [
            141.0807708,
            43.0701139
          ],
          [
            141.0811541,
            43.0706407
          ],
          [
            141.08141,
            43.0711658
          ],
          [
            141.0818018,
            43.0718919
          ]
        ]
      }
    },
    {
      "type": "Feature",
      "properties": {
        "id": "trail-osm-506713309",
        "kind": "trail",
        "label_ja": "エコーコース",
        "label_en": "Echo Trail",
        "osm_tags": {
          "name": "エコーコース",
          "name:en": "Echo Trail",
          "piste:difficulty": "intermediate",
          "piste:type": "downhill"
        },
        "source": {
          "type": "osm",
          "id": "way/506713309",
          "retrieved_at": "2026-07-18"
        }
      },
      "geometry": {
        "type": "LineString",
        "coordinates": [
          [
            141.0593581,
            43.0695569
          ],
          [
            141.0599892,
            43.0698835
          ],
          [
            141.0608076,
            43.0702405
          ],
          [
            141.0613841,
            43.070614
          ],
          [
            141.0618004,
            43.0710454
          ],
          [
            141.0619639,
            43.0715006
          ],
          [
            141.0624161,
            43.0722968
          ],
          [
            141.0627974,
            43.0727384
          ],
          [
            141.0632032,
            43.0730377
          ],
          [
            141.0633427,
            43.0730848
          ],
          [
            141.0639113,
            43.073171
          ],
          [
            141.0644746,
            43.0732141
          ],
          [
            141.0652149,
            43.0731827
          ],
          [
            141.066556,
            43.0731671
          ],
          [
            141.0676235,
            43.0733081
          ],
          [
            141.0691709,
            43.0737226
          ]
        ]
      }
    },
    {
      "type": "Feature",
      "properties": {
        "id": "trail-osm-506713311",
        "kind": "trail",
        "label_ja": "スウィングコース",
        "label_en": "Swing Trail",
        "osm_tags": {
          "name": "スウィングコース",
          "name:en": "Swing Trail",
          "piste:difficulty": "intermediate",
          "piste:type": "downhill"
        },
        "source": {
          "type": "osm",
          "id": "way/506713311",
          "retrieved_at": "2026-07-18"
        }
      },
      "geometry": {
        "type": "LineString",
        "coordinates": [
          [
            141.0637559,
            43.0750369
          ],
          [
            141.0651285,
            43.0749343
          ],
          [
            141.0658186,
            43.0747708
          ],
          [
            141.0675967,
            43.0740487
          ],
          [
            141.0684121,
            43.0738567
          ],
          [
            141.0691709,
            43.0737226
          ],
          [
            141.0701213,
            43.0736717
          ],
          [
            141.0723897,
            43.0735504
          ],
          [
            141.0728607,
            43.0733116
          ],
          [
            141.0731838,
            43.0730328
          ],
          [
            141.0744631,
            43.0719797
          ],
          [
            141.0754692,
            43.0712073
          ],
          [
            141.0763336,
            43.0706457
          ],
          [
            141.0768342,
            43.0704827
          ],
          [
            141.0781201,
            43.0704342
          ],
          [
            141.0787761,
            43.070518
          ],
          [
            141.0789692,
            43.0706277
          ]
        ]
      }
    },
    {
      "type": "Feature",
      "properties": {
        "id": "trail-osm-506713314",
        "kind": "trail",
        "label_ja": "ウッデイーコース",
        "label_en": "Woody Trail",
        "osm_tags": {
          "name": "ウッデイーコース",
          "name:en": "Woody Trail",
          "piste:difficulty": "intermediate",
          "piste:type": "downhill"
        },
        "source": {
          "type": "osm",
          "id": "way/506713314",
          "retrieved_at": "2026-07-18"
        }
      },
      "geometry": {
        "type": "LineString",
        "coordinates": [
          [
            141.0593581,
            43.0695569
          ],
          [
            141.0596039,
            43.0700266
          ],
          [
            141.0611083,
            43.0726208
          ],
          [
            141.0616788,
            43.0735094
          ],
          [
            141.062192,
            43.0740152
          ],
          [
            141.0626775,
            43.0743152
          ],
          [
            141.0632032,
            43.0746404
          ],
          [
            141.0637559,
            43.0750369
          ],
          [
            141.0643652,
            43.0754594
          ],
          [
            141.0648606,
            43.0759042
          ],
          [
            141.0661569,
            43.0764863
          ],
          [
            141.0664701,
            43.0765713
          ],
          [
            141.0669529,
            43.0766625
          ],
          [
            141.0674985,
            43.0766509
          ],
          [
            141.0677953,
            43.0766183
          ]
        ]
      }
    },
    {
      "type": "Feature",
      "properties": {
        "id": "trail-osm-506713318",
        "kind": "trail",
        "label_ja": null,
        "label_en": null,
        "osm_tags": {
          "piste:difficulty": "easy",
          "piste:type": "downhill"
        },
        "source": {
          "type": "osm",
          "id": "way/506713318",
          "retrieved_at": "2026-07-18"
        }
      },
      "geometry": {
        "type": "LineString",
        "coordinates": [
          [
            141.0677953,
            43.0766183
          ],
          [
            141.0682779,
            43.0766741
          ],
          [
            141.0687662,
            43.076719
          ],
          [
            141.0691094,
            43.0767407
          ],
          [
            141.0694957,
            43.076631
          ],
          [
            141.0698926,
            43.0765566
          ],
          [
            141.0701609,
            43.0765526
          ],
          [
            141.0704184,
            43.0765801
          ],
          [
            141.0706448,
            43.0766347
          ],
          [
            141.0712114,
            43.076862
          ],
          [
            141.0715439,
            43.0769538
          ],
          [
            141.072033,
            43.0770385
          ],
          [
            141.0724208,
            43.0771201
          ],
          [
            141.0731008,
            43.0774835
          ],
          [
            141.0734139,
            43.0776764
          ]
        ]
      }
    },
    {
      "type": "Feature",
      "properties": {
        "id": "trail-osm-506713322",
        "kind": "trail",
        "label_ja": "メルヘンコース",
        "label_en": "Märchen Trail",
        "osm_tags": {
          "name": "メルヘンコース",
          "name:en": "Märchen Trail",
          "piste:difficulty": "easy",
          "piste:type": "downhill"
        },
        "source": {
          "type": "osm",
          "id": "way/506713322",
          "retrieved_at": "2026-07-18"
        }
      },
      "geometry": {
        "type": "LineString",
        "coordinates": [
          [
            141.0677055,
            43.0778876
          ],
          [
            141.0677992,
            43.0779616
          ],
          [
            141.0680653,
            43.0779506
          ],
          [
            141.0684664,
            43.0778164
          ],
          [
            141.06907,
            43.0776357
          ],
          [
            141.0693324,
            43.077529
          ],
          [
            141.0695588,
            43.0774734
          ],
          [
            141.0698658,
            43.0775518
          ],
          [
            141.0702628,
            43.0776106
          ],
          [
            141.0711533,
            43.0776145
          ],
          [
            141.0714483,
            43.0776419
          ],
          [
            141.0728913,
            43.0776655
          ],
          [
            141.0734139,
            43.0776764
          ],
          [
            141.0740286,
            43.0777203
          ],
          [
            141.0745168,
            43.0777712
          ],
          [
            141.0751712,
            43.0779711
          ],
          [
            141.0756004,
            43.0780455
          ],
          [
            141.0758793,
            43.0780573
          ],
          [
            141.0764628,
            43.0780518
          ],
          [
            141.076754,
            43.0778924
          ],
          [
            141.0769805,
            43.0774817
          ],
          [
            141.0769368,
            43.0769853
          ],
          [
            141.0768292,
            43.0761907
          ],
          [
            141.0768853,
            43.0755092
          ],
          [
            141.0769516,
            43.0748889
          ],
          [
            141.0770881,
            43.0743046
          ],
          [
            141.0772315,
            43.0741464
          ],
          [
            141.0778262,
            43.0738922
          ],
          [
            141.0783195,
            43.0736002
          ],
          [
            141.0784388,
            43.0731601
          ],
          [
            141.0784734,
            43.0728248
          ],
          [
            141.0784487,
            43.0724911
          ],
          [
            141.0783688,
            43.0722776
          ],
          [
            141.078249,
            43.071979
          ],
          [
            141.0781169,
            43.0715813
          ],
          [
            141.0780466,
            43.0712547
          ]
        ]
      }
    },
    {
      "type": "Feature",
      "properties": {
        "id": "trail-osm-1084139718",
        "kind": "trail",
        "label_ja": null,
        "label_en": null,
        "osm_tags": {
          "piste:difficulty": "easy",
          "piste:type": "yes"
        },
        "source": {
          "type": "osm",
          "id": "way/1084139718",
          "retrieved_at": "2026-07-18"
        }
      },
      "geometry": {
        "type": "LineString",
        "coordinates": [
          [
            141.067832,
            43.077848
          ],
          [
            141.0677055,
            43.0778876
          ]
        ]
      }
    },
    {
      "type": "Feature",
      "properties": {
        "id": "trail-osm-1084139719",
        "kind": "trail",
        "label_ja": null,
        "label_en": null,
        "osm_tags": {
          "piste:difficulty": "easy",
          "piste:type": "downhill"
        },
        "source": {
          "type": "osm",
          "id": "way/1084139719",
          "retrieved_at": "2026-07-18"
        }
      },
      "geometry": {
        "type": "LineString",
        "coordinates": [
          [
            141.0677055,
            43.0778876
          ],
          [
            141.0676439,
            43.0778051
          ],
          [
            141.0675722,
            43.0776244
          ],
          [
            141.0675582,
            43.0775407
          ],
          [
            141.0675404,
            43.077435
          ],
          [
            141.0675202,
            43.0772523
          ],
          [
            141.0675888,
            43.0769894
          ],
          [
            141.0677953,
            43.0766183
          ]
        ]
      }
    },
    {
      "type": "Feature",
      "properties": {
        "id": "trail-osm-1084139720",
        "kind": "trail",
        "label_ja": null,
        "label_en": null,
        "osm_tags": {
          "piste:type": "yes"
        },
        "source": {
          "type": "osm",
          "id": "way/1084139720",
          "retrieved_at": "2026-07-18"
        }
      },
      "geometry": {
        "type": "LineString",
        "coordinates": [
          [
            141.0627258,
            43.0757124
          ],
          [
            141.0627566,
            43.075833
          ],
          [
            141.0627501,
            43.0759474
          ],
          [
            141.0626848,
            43.0760023
          ],
          [
            141.0625902,
            43.0760309
          ],
          [
            141.0625151,
            43.0760237
          ],
          [
            141.0624275,
            43.0759174
          ]
        ]
      }
    },
    {
      "type": "Feature",
      "properties": {
        "id": "trail-osm-1084139722",
        "kind": "trail",
        "label_ja": "林間コース",
        "label_en": "Forest Trail",
        "osm_tags": {
          "name": "林間コース",
          "name:en": "Forest Trail",
          "piste:difficulty": "easy",
          "piste:type": "downhill"
        },
        "source": {
          "type": "osm",
          "id": "way/1084139722",
          "retrieved_at": "2026-07-18"
        }
      },
      "geometry": {
        "type": "LineString",
        "coordinates": [
          [
            141.058814,
            43.068995
          ],
          [
            141.0586005,
            43.0690994
          ],
          [
            141.0583655,
            43.0692488
          ],
          [
            141.0580319,
            43.0694717
          ],
          [
            141.0578596,
            43.0696657
          ],
          [
            141.0577095,
            43.0700128
          ],
          [
            141.0577657,
            43.0705045
          ],
          [
            141.0578915,
            43.0707902
          ],
          [
            141.0583724,
            43.0712874
          ],
          [
            141.0587331,
            43.07171
          ],
          [
            141.0590577,
            43.0719935
          ],
          [
            141.0595355,
            43.0724113
          ],
          [
            141.0600809,
            43.0728059
          ],
          [
            141.0603547,
            43.0731122
          ],
          [
            141.0604835,
            43.0732885
          ],
          [
            141.0605897,
            43.0734412
          ],
          [
            141.0608607,
            43.073926
          ],
          [
            141.0613673,
            43.0747287
          ],
          [
            141.0616572,
            43.0750829
          ],
          [
            141.0619587,
            43.07526
          ],
          [
            141.0627258,
            43.0757124
          ],
          [
            141.0643338,
            43.0764233
          ],
          [
            141.0648995,
            43.0765173
          ],
          [
            141.0658323,
            43.0765241
          ],
          [
            141.0664701,
            43.0765713
          ]
        ]
      }
    },
    {
      "type": "Feature",
      "properties": {
        "id": "trail-osm-1084139724",
        "kind": "trail",
        "label_ja": "Märchen Trail",
        "label_en": null,
        "osm_tags": {
          "name": "Märchen Trail",
          "piste:difficulty": "easy",
          "piste:type": "downhill"
        },
        "source": {
          "type": "osm",
          "id": "way/1084139724",
          "retrieved_at": "2026-07-18"
        }
      },
      "geometry": {
        "type": "LineString",
        "coordinates": [
          [
            141.0780466,
            43.0712547
          ],
          [
            141.0780895,
            43.0711489
          ],
          [
            141.0783577,
            43.0708119
          ],
          [
            141.0784435,
            43.0707414
          ],
          [
            141.0785615,
            43.0706865
          ],
          [
            141.078701,
            43.0706513
          ],
          [
            141.0789692,
            43.0706277
          ],
          [
            141.0792482,
            43.0706669
          ],
          [
            141.0795164,
            43.0707257
          ],
          [
            141.0797578,
            43.0708315
          ],
          [
            141.0800904,
            43.0709961
          ],
          [
            141.0802942,
            43.0711176
          ],
          [
            141.0818018,
            43.0718919
          ]
        ]
      }
    },
    {
      "type": "Feature",
      "properties": {
        "id": "trail-osm-1084139725",
        "kind": "trail",
        "label_ja": null,
        "label_en": null,
        "osm_tags": {
          "piste:difficulty": "easy",
          "piste:type": "downhill"
        },
        "source": {
          "type": "osm",
          "id": "way/1084139725",
          "retrieved_at": "2026-07-18"
        }
      },
      "geometry": {
        "type": "LineString",
        "coordinates": [
          [
            141.058925,
            43.0693
          ],
          [
            141.058814,
            43.068995
          ]
        ]
      }
    },
    {
      "type": "Feature",
      "properties": {
        "id": "trail-osm-1084139726",
        "kind": "trail",
        "label_ja": null,
        "label_en": null,
        "osm_tags": {
          "piste:difficulty": "easy",
          "piste:type": "downhill"
        },
        "source": {
          "type": "osm",
          "id": "way/1084139726",
          "retrieved_at": "2026-07-18"
        }
      },
      "geometry": {
        "type": "LineString",
        "coordinates": [
          [
            141.0591128,
            43.06889
          ],
          [
            141.058814,
            43.068995
          ]
        ]
      }
    },
    {
      "type": "Feature",
      "properties": {
        "id": "trail-osm-1084139727",
        "kind": "trail",
        "label_ja": null,
        "label_en": null,
        "osm_tags": {
          "piste:difficulty": "intermediate",
          "piste:type": "downhill"
        },
        "source": {
          "type": "osm",
          "id": "way/1084139727",
          "retrieved_at": "2026-07-18"
        }
      },
      "geometry": {
        "type": "LineString",
        "coordinates": [
          [
            141.0605897,
            43.0734412
          ],
          [
            141.0609628,
            43.0737166
          ],
          [
            141.0614799,
            43.07392
          ],
          [
            141.062192,
            43.0740152
          ]
        ]
      }
    },
    {
      "type": "Feature",
      "properties": {
        "id": "trail-osm-1084139728",
        "kind": "trail",
        "label_ja": null,
        "label_en": null,
        "osm_tags": {
          "piste:difficulty": "intermediate",
          "piste:type": "downhill"
        },
        "source": {
          "type": "osm",
          "id": "way/1084139728",
          "retrieved_at": "2026-07-18"
        }
      },
      "geometry": {
        "type": "LineString",
        "coordinates": [
          [
            141.0723897,
            43.0735504
          ],
          [
            141.0736294,
            43.0738825
          ]
        ]
      }
    },
    {
      "type": "Feature",
      "properties": {
        "id": "trail-osm-1084139729",
        "kind": "trail",
        "label_ja": "ファミリコース",
        "label_en": "Family Trail",
        "osm_tags": {
          "name": "ファミリコース",
          "name:en": "Family Trail",
          "piste:difficulty": "intermediate",
          "piste:type": "downhill"
        },
        "source": {
          "type": "osm",
          "id": "way/1084139729",
          "retrieved_at": "2026-07-18"
        }
      },
      "geometry": {
        "type": "LineString",
        "coordinates": [
          [
            141.0677953,
            43.0766183
          ],
          [
            141.0688412,
            43.0758865
          ],
          [
            141.070062,
            43.0750387
          ],
          [
            141.0705681,
            43.0746872
          ],
          [
            141.0711315,
            43.0744636
          ],
          [
            141.0716894,
            43.0743423
          ],
          [
            141.0736294,
            43.0738825
          ],
          [
            141.0746243,
            43.0737447
          ],
          [
            141.0757885,
            43.0731764
          ],
          [
            141.0766412,
            43.0725342
          ],
          [
            141.0773055,
            43.0718945
          ],
          [
            141.0780466,
            43.0712547
          ]
        ]
      }
    },
    {
      "type": "Feature",
      "properties": {
        "id": "trail-osm-1084139730",
        "kind": "trail",
        "label_ja": null,
        "label_en": null,
        "osm_tags": {
          "piste:difficulty": "intermediate",
          "piste:type": "downhill"
        },
        "source": {
          "type": "osm",
          "id": "way/1084139730",
          "retrieved_at": "2026-07-18"
        }
      },
      "geometry": {
        "type": "LineString",
        "coordinates": [
          [
            141.058814,
            43.068995
          ],
          [
            141.0590444,
            43.0691004
          ],
          [
            141.0591978,
            43.0693204
          ],
          [
            141.0593581,
            43.0695569
          ]
        ]
      }
    },
    {
      "type": "Feature",
      "properties": {
        "id": "trail-osm-1084139731",
        "kind": "trail",
        "label_ja": null,
        "label_en": null,
        "osm_tags": {
          "piste:difficulty": "intermediate",
          "piste:type": "downhill"
        },
        "source": {
          "type": "osm",
          "id": "way/1084139731",
          "retrieved_at": "2026-07-18"
        }
      },
      "geometry": {
        "type": "LineString",
        "coordinates": [
          [
            141.0594085,
            43.0693381
          ],
          [
            141.0593581,
            43.0695569
          ]
        ]
      }
    },
    {
      "type": "Feature",
      "properties": {
        "id": "trail-osm-1084139732",
        "kind": "trail",
        "label_ja": null,
        "label_en": null,
        "osm_tags": {
          "piste:difficulty": "advanced",
          "piste:type": "downhill"
        },
        "source": {
          "type": "osm",
          "id": "way/1084139732",
          "retrieved_at": "2026-07-18"
        }
      },
      "geometry": {
        "type": "LineString",
        "coordinates": [
          [
            141.0594085,
            43.0693381
          ],
          [
            141.0594561,
            43.0692619
          ],
          [
            141.0596391,
            43.069215
          ],
          [
            141.0598635,
            43.0691522
          ]
        ]
      }
    },
    {
      "type": "Feature",
      "properties": {
        "id": "trail-osm-1084139733",
        "kind": "trail",
        "label_ja": null,
        "label_en": null,
        "osm_tags": {
          "piste:type": "downhill"
        },
        "source": {
          "type": "osm",
          "id": "way/1084139733",
          "retrieved_at": "2026-07-18"
        }
      },
      "geometry": {
        "type": "LineString",
        "coordinates": [
          [
            141.0818018,
            43.0718919
          ],
          [
            141.0818424,
            43.0721123
          ],
          [
            141.0818594,
            43.0723406
          ],
          [
            141.0818367,
            43.0724734
          ],
          [
            141.0815714,
            43.0726761
          ]
        ]
      }
    },
    {
      "type": "Feature",
      "properties": {
        "id": "trail-osm-1084139734",
        "kind": "trail",
        "label_ja": null,
        "label_en": null,
        "osm_tags": {
          "piste:type": "downhill"
        },
        "source": {
          "type": "osm",
          "id": "way/1084139734",
          "retrieved_at": "2026-07-18"
        }
      },
      "geometry": {
        "type": "LineString",
        "coordinates": [
          [
            141.0818018,
            43.0718919
          ],
          [
            141.0821379,
            43.0717886
          ],
          [
            141.0822223,
            43.0715958
          ]
        ]
      }
    },
    {
      "type": "Feature",
      "properties": {
        "id": "trail-osm-1084139735",
        "kind": "trail",
        "label_ja": "Family Trail",
        "label_en": null,
        "osm_tags": {
          "area": "yes",
          "name": "Family Trail",
          "piste:difficulty": "intermediate",
          "piste:type": "downhill"
        },
        "source": {
          "type": "osm",
          "id": "way/1084139735",
          "retrieved_at": "2026-07-18"
        }
      },
      "geometry": {
        "type": "LineString",
        "coordinates": [
          [
            141.0676785,
            43.0764915
          ],
          [
            141.0674995,
            43.0767658
          ],
          [
            141.0680054,
            43.076784
          ],
          [
            141.0687239,
            43.0762757
          ],
          [
            141.0695876,
            43.0756531
          ],
          [
            141.0701444,
            43.0751924
          ],
          [
            141.0709114,
            43.0747691
          ],
          [
            141.0711898,
            43.0747069
          ],
          [
            141.0721085,
            43.074439
          ],
          [
            141.0729455,
            43.0746312
          ],
          [
            141.0752098,
            43.0739982
          ],
          [
            141.0761348,
            43.0734851
          ],
          [
            141.0767832,
            43.0730342
          ],
          [
            141.0777953,
            43.0721634
          ],
          [
            141.0780727,
            43.0718731
          ],
          [
            141.0778483,
            43.071257
          ],
          [
            141.0778512,
            43.0706557
          ],
          [
            141.0770306,
            43.0714021
          ],
          [
            141.0767682,
            43.0717855
          ],
          [
            141.0760035,
            43.0725084
          ],
          [
            141.0756661,
            43.0726672
          ],
          [
            141.0751713,
            43.0729301
          ],
          [
            141.0747515,
            43.073193
          ],
          [
            141.0740242,
            43.0734504
          ],
          [
            141.073282,
            43.073527
          ],
          [
            141.0731696,
            43.0734394
          ],
          [
            141.0716915,
            43.0739042
          ],
          [
            141.0714452,
            43.0739816
          ],
          [
            141.0711725,
            43.0743178
          ],
          [
            141.0703365,
            43.0745536
          ],
          [
            141.0696984,
            43.0748907
          ],
          [
            141.0684614,
            43.0759476
          ],
          [
            141.0676785,
            43.0764915
          ]
        ]
      }
    },
    {
      "type": "Feature",
      "properties": {
        "id": "trail-osm-1084139736",
        "kind": "trail",
        "label_ja": null,
        "label_en": null,
        "osm_tags": {
          "piste:difficulty": "intermediate",
          "piste:type": "downhill"
        },
        "source": {
          "type": "osm",
          "id": "way/1084139736",
          "retrieved_at": "2026-07-18"
        }
      },
      "geometry": {
        "type": "LineString",
        "coordinates": [
          [
            141.0701213,
            43.0736717
          ],
          [
            141.0706053,
            43.0739103
          ],
          [
            141.0708667,
            43.0740764
          ],
          [
            141.0709659,
            43.0741454
          ],
          [
            141.0709803,
            43.0742382
          ],
          [
            141.0708136,
            43.0741848
          ]
        ]
      }
    },
    {
      "type": "Feature",
      "properties": {
        "id": "trail-osm-1084139737",
        "kind": "trail",
        "label_ja": null,
        "label_en": null,
        "osm_tags": {
          "piste:difficulty": "intermediate",
          "piste:type": "downhill"
        },
        "source": {
          "type": "osm",
          "id": "way/1084139737",
          "retrieved_at": "2026-07-18"
        }
      },
      "geometry": {
        "type": "LineString",
        "coordinates": [
          [
            141.070062,
            43.0750387
          ],
          [
            141.0701206,
            43.0745941
          ],
          [
            141.0701335,
            43.0743424
          ],
          [
            141.0700876,
            43.0740267
          ],
          [
            141.0700436,
            43.0737663
          ],
          [
            141.0701213,
            43.0736717
          ]
        ]
      }
    },
    {
      "type": "Feature",
      "properties": {
        "id": "trail-osm-1084139738",
        "kind": "trail",
        "label_ja": "Echo Trail",
        "label_en": null,
        "osm_tags": {
          "area": "yes",
          "name": "Echo Trail",
          "piste:difficulty": "intermediate",
          "piste:type": "downhill"
        },
        "source": {
          "type": "osm",
          "id": "way/1084139738",
          "retrieved_at": "2026-07-18"
        }
      },
      "geometry": {
        "type": "LineString",
        "coordinates": [
          [
            141.0597491,
            43.0699627
          ],
          [
            141.0595533,
            43.0695431
          ],
          [
            141.0603757,
            43.0698673
          ],
          [
            141.0611624,
            43.0702606
          ],
          [
            141.0617065,
            43.0706653
          ],
          [
            141.0621516,
            43.0713518
          ],
          [
            141.0624682,
            43.0719805
          ],
          [
            141.0629628,
            43.0726236
          ],
          [
            141.0633783,
            43.0728838
          ],
          [
            141.063962,
            43.0730139
          ],
          [
            141.0646149,
            43.0730717
          ],
          [
            141.0655447,
            43.0730861
          ],
          [
            141.066534,
            43.0730789
          ],
          [
            141.067454,
            43.0731801
          ],
          [
            141.0683443,
            43.0733174
          ],
          [
            141.0691899,
            43.0735556
          ],
          [
            141.0685957,
            43.0736877
          ],
          [
            141.0680101,
            43.0735178
          ],
          [
            141.0675537,
            43.073392
          ],
          [
            141.0664514,
            43.0733354
          ],
          [
            141.0651768,
            43.0733983
          ],
          [
            141.0644017,
            43.073348
          ],
          [
            141.063153,
            43.0731592
          ],
          [
            141.0625416,
            43.0727378
          ],
          [
            141.0620507,
            43.0720332
          ],
          [
            141.0616115,
            43.0711587
          ],
          [
            141.0612842,
            43.0707183
          ],
          [
            141.0603714,
            43.0702088
          ],
          [
            141.0597491,
            43.0699627
          ]
        ]
      }
    },
    {
      "type": "Feature",
      "properties": {
        "id": "trail-osm-1084139739",
        "kind": "trail",
        "label_ja": "Woody Trail",
        "label_en": null,
        "osm_tags": {
          "area": "yes",
          "name": "Woody Trail",
          "piste:difficulty": "intermediate",
          "piste:type": "downhill"
        },
        "source": {
          "type": "osm",
          "id": "way/1084139739",
          "retrieved_at": "2026-07-18"
        }
      },
      "geometry": {
        "type": "LineString",
        "coordinates": [
          [
            141.0595533,
            43.0695431
          ],
          [
            141.0591651,
            43.0696047
          ],
          [
            141.0593556,
            43.070243
          ],
          [
            141.0597651,
            43.0709851
          ],
          [
            141.0612081,
            43.0734974
          ],
          [
            141.0617641,
            43.0743967
          ],
          [
            141.0623296,
            43.0746952
          ],
          [
            141.0632367,
            43.0751169
          ],
          [
            141.0641621,
            43.0758031
          ],
          [
            141.0655265,
            43.0763617
          ],
          [
            141.0663382,
            43.0766697
          ],
          [
            141.0671307,
            43.0767475
          ],
          [
            141.0674995,
            43.0767658
          ],
          [
            141.0676785,
            43.0764915
          ],
          [
            141.0671442,
            43.0765314
          ],
          [
            141.0663062,
            43.0764165
          ],
          [
            141.0651217,
            43.0757046
          ],
          [
            141.0642639,
            43.0751853
          ],
          [
            141.0635023,
            43.0747243
          ],
          [
            141.0630614,
            43.074357
          ],
          [
            141.0622728,
            43.0737002
          ],
          [
            141.0610733,
            43.0720134
          ],
          [
            141.060209,
            43.0707238
          ],
          [
            141.0597491,
            43.0699627
          ],
          [
            141.0595533,
            43.0695431
          ]
        ]
      }
    },
    {
      "type": "Feature",
      "properties": {
        "id": "trail-osm-1084139740",
        "kind": "trail",
        "label_ja": "Swing Trail",
        "label_en": null,
        "osm_tags": {
          "area": "yes",
          "name": "Swing Trail",
          "piste:difficulty": "intermediate",
          "piste:type": "downhill"
        },
        "source": {
          "type": "osm",
          "id": "way/1084139740",
          "retrieved_at": "2026-07-18"
        }
      },
      "geometry": {
        "type": "LineString",
        "coordinates": [
          [
            141.0630614,
            43.074357
          ],
          [
            141.0638206,
            43.0746077
          ],
          [
            141.0647721,
            43.0747776
          ],
          [
            141.0653175,
            43.0747112
          ],
          [
            141.0660561,
            43.0745119
          ],
          [
            141.0669993,
            43.074072
          ],
          [
            141.0684216,
            43.0737283
          ],
          [
            141.0685957,
            43.0736877
          ],
          [
            141.0691899,
            43.0735556
          ],
          [
            141.06974,
            43.073571
          ],
          [
            141.0704547,
            43.0734991
          ],
          [
            141.0711867,
            43.0734341
          ],
          [
            141.0723936,
            43.0733907
          ],
          [
            141.0729871,
            43.0731017
          ],
          [
            141.0734125,
            43.0726103
          ],
          [
            141.0743028,
            43.0719888
          ],
          [
            141.0747678,
            43.0715625
          ],
          [
            141.0756383,
            43.0709627
          ],
          [
            141.0762319,
            43.0705508
          ],
          [
            141.0770628,
            43.0702978
          ],
          [
            141.078151,
            43.0703267
          ],
          [
            141.0787841,
            43.0704062
          ],
          [
            141.0778512,
            43.0706557
          ],
          [
            141.0776267,
            43.0705652
          ],
          [
            141.0769639,
            43.0705508
          ],
          [
            141.0765089,
            43.0707025
          ],
          [
            141.0759351,
            43.0710494
          ],
          [
            141.0751239,
            43.0716781
          ],
          [
            141.0739863,
            43.0726753
          ],
          [
            141.0731696,
            43.0734394
          ],
          [
            141.0716915,
            43.0739042
          ],
          [
            141.0714241,
            43.0737737
          ],
          [
            141.0709295,
            43.0737737
          ],
          [
            141.0697226,
            43.0739182
          ],
          [
            141.0688521,
            43.0740122
          ],
          [
            141.0681992,
            43.0740628
          ],
          [
            141.0674968,
            43.0742723
          ],
          [
            141.0666164,
            43.0745831
          ],
          [
            141.0659635,
            43.0749155
          ],
          [
            141.0653304,
            43.0751106
          ],
          [
            141.0642639,
            43.0751853
          ],
          [
            141.0635023,
            43.0747243
          ],
          [
            141.0630614,
            43.074357
          ]
        ]
      }
    },
    {
      "type": "Feature",
      "properties": {
        "id": "trail-osm-1084139741",
        "kind": "trail",
        "label_ja": "Märchen Trail",
        "label_en": null,
        "osm_tags": {
          "area": "yes",
          "name": "Märchen Trail",
          "piste:difficulty": "easy",
          "piste:type": "downhill"
        },
        "source": {
          "type": "osm",
          "id": "way/1084139741",
          "retrieved_at": "2026-07-18"
        }
      },
      "geometry": {
        "type": "LineString",
        "coordinates": [
          [
            141.0677152,
            43.0779771
          ],
          [
            141.067843,
            43.0779041
          ],
          [
            141.0681251,
            43.0778863
          ],
          [
            141.0692302,
            43.0774816
          ],
          [
            141.0687632,
            43.0774335
          ],
          [
            141.0680384,
            43.0773846
          ],
          [
            141.0676948,
            43.0774305
          ],
          [
            141.0676585,
            43.0773613
          ],
          [
            141.0680213,
            43.0773204
          ],
          [
            141.0687162,
            43.0773313
          ],
          [
            141.069412,
            43.0773965
          ],
          [
            141.0698097,
            43.0774484
          ],
          [
            141.070429,
            43.0775107
          ],
          [
            141.0712841,
            43.0775231
          ],
          [
            141.0716875,
            43.0775812
          ],
          [
            141.0729039,
            43.0775429
          ],
          [
            141.0738297,
            43.0775523
          ],
          [
            141.0747296,
            43.0777725
          ],
          [
            141.075565,
            43.077892
          ],
          [
            141.0761377,
            43.0779454
          ],
          [
            141.0765381,
            43.0779297
          ],
          [
            141.0768008,
            43.0776246
          ],
          [
            141.0768783,
            43.0772095
          ],
          [
            141.0767836,
            43.0766936
          ],
          [
            141.0767147,
            43.0761778
          ],
          [
            141.0767836,
            43.0754984
          ],
          [
            141.0768439,
            43.0748757
          ],
          [
            141.0769429,
            43.0742906
          ],
          [
            141.0772443,
            43.0739572
          ],
          [
            141.0779203,
            43.0737213
          ],
          [
            141.0782562,
            43.0733785
          ],
          [
            141.0783595,
            43.0728658
          ],
          [
            141.0782829,
            43.0723067
          ],
          [
            141.0781442,
            43.0719288
          ],
          [
            141.0780727,
            43.0718731
          ],
          [
            141.0778483,
            43.071257
          ],
          [
            141.0778512,
            43.0706557
          ],
          [
            141.0787841,
            43.0704062
          ],
          [
            141.0796229,
            43.070627
          ],
          [
            141.0803887,
            43.070893
          ],
          [
            141.0813478,
            43.0713689
          ],
          [
            141.0817249,
            43.0714948
          ],
          [
            141.0820513,
            43.0716172
          ],
          [
            141.082373,
            43.071634
          ],
          [
            141.0824582,
            43.0718061
          ],
          [
            141.0821044,
            43.0723753
          ],
          [
            141.081729,
            43.0724301
          ],
          [
            141.0815919,
            43.0720756
          ],
          [
            141.0812298,
            43.0717801
          ],
          [
            141.0801066,
            43.071218
          ],
          [
            141.0790434,
            43.0708302
          ],
          [
            141.0783804,
            43.0713976
          ],
          [
            141.0784066,
            43.0719808
          ],
          [
            141.0786503,
            43.0727777
          ],
          [
            141.0785303,
            43.0732897
          ],
          [
            141.0784966,
            43.0736539
          ],
          [
            141.078013,
            43.0739578
          ],
          [
            141.0773982,
            43.0741933
          ],
          [
            141.0771396,
            43.0745082
          ],
          [
            141.0770009,
            43.0751325
          ],
          [
            141.0770234,
            43.0756829
          ],
          [
            141.0769597,
            43.0763209
          ],
          [
            141.0770721,
            43.0770492
          ],
          [
            141.0771209,
            43.0774353
          ],
          [
            141.0770496,
            43.0777721
          ],
          [
            141.0767535,
            43.0781116
          ],
          [
            141.0765811,
            43.0782567
          ],
          [
            141.0758501,
            43.0782923
          ],
          [
            141.0752728,
            43.078232
          ],
          [
            141.074898,
            43.0781034
          ],
          [
            141.0742307,
            43.0778761
          ],
          [
            141.0739009,
            43.0778077
          ],
          [
            141.0732374,
            43.0777529
          ],
          [
            141.072274,
            43.0777857
          ],
          [
            141.0718317,
            43.0777748
          ],
          [
            141.0716592,
            43.0777173
          ],
          [
            141.0707221,
            43.0777337
          ],
          [
            141.070336,
            43.07772
          ],
          [
            141.0696238,
            43.0776215
          ],
          [
            141.0693839,
            43.0776105
          ],
          [
            141.068904,
            43.0777693
          ],
          [
            141.0680381,
            43.078013
          ],
          [
            141.0677152,
            43.0779771
          ]
        ]
      }
    },
    {
      "type": "Feature",
      "properties": {
        "id": "trail-osm-1084139742",
        "kind": "trail",
        "label_ja": "Märchen Trail",
        "label_en": null,
        "osm_tags": {
          "name": "Märchen Trail",
          "piste:difficulty": "easy",
          "piste:type": "downhill"
        },
        "source": {
          "type": "osm",
          "id": "way/1084139742",
          "retrieved_at": "2026-07-18"
        }
      },
      "geometry": {
        "type": "LineString",
        "coordinates": [
          [
            141.0675404,
            43.077435
          ],
          [
            141.0680312,
            43.0773481
          ],
          [
            141.0682364,
            43.0773653
          ],
          [
            141.0687915,
            43.0773866
          ],
          [
            141.0695588,
            43.0774734
          ]
        ]
      }
    },
    {
      "type": "Feature",
      "properties": {
        "id": "trail-osm-1084139743",
        "kind": "trail",
        "label_ja": "Forest Trail",
        "label_en": null,
        "osm_tags": {
          "area": "yes",
          "name": "Forest Trail",
          "piste:difficulty": "easy",
          "piste:type": "downhill"
        },
        "source": {
          "type": "osm",
          "id": "way/1084139743",
          "retrieved_at": "2026-07-18"
        }
      },
      "geometry": {
        "type": "LineString",
        "coordinates": [
          [
            141.0586734,
            43.069217
          ],
          [
            141.0585684,
            43.0690034
          ],
          [
            141.057963,
            43.0693456
          ],
          [
            141.0576244,
            43.0697759
          ],
          [
            141.0575713,
            43.0700933
          ],
          [
            141.05765,
            43.0705177
          ],
          [
            141.0578487,
            43.0708573
          ],
          [
            141.0581074,
            43.0711119
          ],
          [
            141.0583735,
            43.0713666
          ],
          [
            141.0585272,
            43.0716432
          ],
          [
            141.0589095,
            43.0719772
          ],
          [
            141.0593744,
            43.0723579
          ],
          [
            141.0598182,
            43.0727508
          ],
          [
            141.0601837,
            43.0730393
          ],
          [
            141.0603207,
            43.0733659
          ],
          [
            141.0606079,
            43.0738235
          ],
          [
            141.0609048,
            43.0742741
          ],
          [
            141.0612605,
            43.074789
          ],
          [
            141.0615184,
            43.0751632
          ],
          [
            141.0620144,
            43.0754111
          ],
          [
            141.0626213,
            43.0757544
          ],
          [
            141.0634306,
            43.0761262
          ],
          [
            141.0641975,
            43.0764671
          ],
          [
            141.0647066,
            43.0766125
          ],
          [
            141.0655877,
            43.0766458
          ],
          [
            141.0663382,
            43.0766697
          ],
          [
            141.0655265,
            43.0763617
          ],
          [
            141.0653234,
            43.0764313
          ],
          [
            141.06486,
            43.0764552
          ],
          [
            141.0641159,
            43.0761596
          ],
          [
            141.0631924,
            43.0756924
          ],
          [
            141.0623407,
            43.0753134
          ],
          [
            141.0617305,
            43.0749201
          ],
          [
            141.0613813,
            43.0744886
          ],
          [
            141.0610223,
            43.0738855
          ],
          [
            141.0606242,
            43.073311
          ],
          [
            141.0602946,
            43.0728986
          ],
          [
            141.0600205,
            43.0725887
          ],
          [
            141.0592569,
            43.0719976
          ],
          [
            141.0587902,
            43.071609
          ],
          [
            141.058539,
            43.0712896
          ],
          [
            141.0581963,
            43.0709963
          ],
          [
            141.0579711,
            43.0707055
          ],
          [
            141.0578439,
            43.0703932
          ],
          [
            141.0578178,
            43.0701453
          ],
          [
            141.0579483,
            43.0698044
          ],
          [
            141.0583529,
            43.0694373
          ],
          [
            141.0586734,
            43.069217
          ]
        ]
      }
    },
    {
      "type": "Feature",
      "properties": {
        "id": "trail-osm-1084139744",
        "kind": "trail",
        "label_ja": "Downhill",
        "label_en": null,
        "osm_tags": {
          "area": "yes",
          "name": "Downhill",
          "piste:difficulty": "advanced",
          "piste:type": "downhill"
        },
        "source": {
          "type": "osm",
          "id": "way/1084139744",
          "retrieved_at": "2026-07-18"
        }
      },
      "geometry": {
        "type": "LineString",
        "coordinates": [
          [
            141.0813478,
            43.0713689
          ],
          [
            141.0817249,
            43.0714948
          ],
          [
            141.0814087,
            43.0708725
          ],
          [
            141.0809725,
            43.0701676
          ],
          [
            141.0805036,
            43.0698251
          ],
          [
            141.0797131,
            43.0694985
          ],
          [
            141.0784864,
            43.0690444
          ],
          [
            141.0778267,
            43.0687736
          ],
          [
            141.0769925,
            43.0685426
          ],
          [
            141.075575,
            43.0682797
          ],
          [
            141.0748117,
            43.0680885
          ],
          [
            141.0740975,
            43.0681523
          ],
          [
            141.0732034,
            43.0680766
          ],
          [
            141.0714533,
            43.0680328
          ],
          [
            141.070521,
            43.0681483
          ],
          [
            141.0697195,
            43.068208
          ],
          [
            141.0682257,
            43.0680607
          ],
          [
            141.067277,
            43.0680248
          ],
          [
            141.0667373,
            43.0678376
          ],
          [
            141.0659249,
            43.0678655
          ],
          [
            141.0650744,
            43.0682797
          ],
          [
            141.0640276,
            43.0688094
          ],
          [
            141.0634007,
            43.0689727
          ],
          [
            141.0627464,
            43.0690444
          ],
          [
            141.0619831,
            43.0690086
          ],
          [
            141.061318,
            43.0689887
          ],
          [
            141.0606256,
            43.0691241
          ],
          [
            141.0597751,
            43.0690843
          ],
          [
            141.059895,
            43.0692476
          ],
          [
            141.0607183,
            43.0692515
          ],
          [
            141.0613998,
            43.0692476
          ],
          [
            141.0630953,
            43.0691918
          ],
          [
            141.0639513,
            43.0690683
          ],
          [
            141.0651671,
            43.0686501
          ],
          [
            141.0659904,
            43.0681841
          ],
          [
            141.0666228,
            43.0681563
          ],
          [
            141.0676369,
            43.0683753
          ],
          [
            141.0686619,
            43.0684789
          ],
          [
            141.0697414,
            43.0684908
          ],
          [
            141.0705046,
            43.0684032
          ],
          [
            141.0715133,
            43.0682638
          ],
          [
            141.0733888,
            43.0683554
          ],
          [
            141.0746209,
            43.0683912
          ],
          [
            141.0751443,
            43.0683952
          ],
          [
            141.0769271,
            43.068686
          ],
          [
            141.0778976,
            43.0689528
          ],
          [
            141.0788081,
            43.0693113
          ],
          [
            141.0802637,
            43.0698729
          ],
          [
            141.080858,
            43.0704066
          ],
          [
            141.0812833,
            43.0711314
          ],
          [
            141.0813478,
            43.0713689
          ]
        ]
      }
    }
  ]
}
